{"fetched_at":"2026-07-19T17:31:09.790Z","source":"https://celestrak.org/NORAD/elements/gp.php?GROUP=oneweb&FORMAT=JSON","constellation":"oneweb","records":[{"OBJECT_NAME":"ONEWEB-0094","OBJECT_ID":"2020-020AC","EPOCH":"2026-07-19T04:07:47.649792","CLASSIFICATION_TYPE":"U","MEAN_MOTION":13.17649156,"ECCENTRICITY":0.00018357,"INCLINATION":87.9158,"RA_OF_ASC_NODE":359.4891,"ARG_OF_PERICENTER":101.7889,"MEAN_ANOMALY":258.3448,"EPHEMERIS_TYPE":0,"NORAD_CAT_ID":45450,"ELEMENT_SET_NO":999,"REV_AT_EPOCH":31052,"BSTAR":0.000002885316,"MEAN_MOTION_DOT":1.4e-7,"MEAN_MOTION_DDOT":0},{"OBJECT_NAME":"ONEWEB-0087","OBJECT_ID":"2020-020AD","EPOCH":"2026-07-18T23:59:26.900160","CLASSIFICATION_TYPE":"U","MEAN_MOTION":13.11418448,"ECCENTRICITY":0.00015927,"INCLINATION":87.8902,"RA_OF_ASC_NODE":14.7129,"ARG_OF_PERICENTER":97.2912,"MEAN_ANOMALY":262.8397,"EPHEMERIS_TYPE":0,"NORAD_CAT_ID":45451,"ELEMENT_SET_NO":999,"REV_AT_EPOCH":30675,"BSTAR":0.00063802831,"MEAN_MOTION_DOT":0.00000239,"MEAN_MOTION_DDOT":0},{"OBJECT_NAME":"ONEWEB-0082","OBJECT_ID":"2020-020AE","EPOCH":"2026-07-18T23:54:33.705216","CLASSIFICATION_TYPE":"U","MEAN_MOTION":13.11419096,"ECCENTRICITY":0.00013522,"INCLINATION":87.8896,"RA_OF_ASC_NODE":14.7273,"ARG_OF_PERICENTER":92.8507,"MEAN_ANOMALY":267.2776,"EPHEMERIS_TYPE":0,"NORAD_CAT_ID":45452,"ELEMENT_SET_NO":999,"REV_AT_EPOCH":30684,"BSTAR":0.000051737283,"MEAN_MOTION_DOT":3.1e-7,"MEAN_MOTION_DDOT":0},{"OBJECT_NAME":"ONEWEB-0050","OBJECT_ID":"2020-020AF","EPOCH":"2026-07-19T02:25:33.312864","CLASSIFICATION_TYPE":"U","MEAN_MOTION":14.90478592,"ECCENTRICITY":0.00027731,"INCLINATION":88.9282,"RA_OF_ASC_NODE":228.8753,"ARG_OF_PERICENTER":164.3342,"MEAN_ANOMALY":195.7973,"EPHEMERIS_TYPE":0,"NORAD_CAT_ID":45453,"ELEMENT_SET_NO":999,"REV_AT_EPOCH":34513,"BSTAR":0.000079976852,"MEAN_MOTION_DOT":0.00000802,"MEAN_MOTION_DDOT":0},{"OBJECT_NAME":"ONEWEB-0034","OBJECT_ID":"2020-020AG","EPOCH":"2026-07-19T04:28:26.452128","CLASSIFICATION_TYPE":"U","MEAN_MOTION":13.11414746,"ECCENTRICITY":0.0001804,"INCLINATION":87.8895,"RA_OF_ASC_NODE":14.6986,"ARG_OF_PERICENTER":89.0763,"MEAN_ANOMALY":271.0572,"EPHEMERIS_TYPE":0,"NORAD_CAT_ID":45454,"ELEMENT_SET_NO":999,"REV_AT_EPOCH":30678,"BSTAR":0.000075229732,"MEAN_MOTION_DOT":3.9e-7,"MEAN_MOTION_DDOT":0},{"OBJECT_NAME":"ONEWEB-0060","OBJECT_ID":"2020-020AH","EPOCH":"2026-07-18T23:43:46.475040","CLASSIFICATION_TYPE":"U","MEAN_MOTION":13.11418376,"ECCENTRICITY":0.00013803,"INCLINATION":87.889,"RA_OF_ASC_NODE":14.7338,"ARG_OF_PERICENTER":125.0838,"MEAN_ANOMALY":235.042,"EPHEMERIS_TYPE":0,"NORAD_CAT_ID":45455,"ELEMENT_SET_NO":999,"REV_AT_EPOCH":30671,"BSTAR":-0.00077091399,"MEAN_MOTION_DOT":-0.00000261,"MEAN_MOTION_DDOT":0},{"OBJECT_NAME":"ONEWEB-0086","OBJECT_ID":"2020-020AJ","EPOCH":"2026-07-19T04:42:38.845152","CLASSIFICATION_TYPE":"U","MEAN_MOTION":13.11416586,"ECCENTRICITY":0.00019809,"INCLINATION":87.8894,"RA_OF_ASC_NODE":14.6904,"ARG_OF_PERICENTER":114.8355,"MEAN_ANOMALY":245.2979,"EPHEMERIS_TYPE":0,"NORAD_CAT_ID":45456,"ELEMENT_SET_NO":999,"REV_AT_EPOCH":30680,"BSTAR":-0.0011929314,"MEAN_MOTION_DOT":-0.0000041,"MEAN_MOTION_DDOT":0},{"OBJECT_NAME":"ONEWEB-0088","OBJECT_ID":"2020-020AK","EPOCH":"2026-07-19T06:00:59.006880","CLASSIFICATION_TYPE":"U","MEAN_MOTION":13.11416064,"ECCENTRICITY":0.00016457,"INCLINATION":87.8902,"RA_OF_ASC_NODE":14.6546,"ARG_OF_PERICENTER":79.7617,"MEAN_ANOMALY":280.3696,"EPHEMERIS_TYPE":0,"NORAD_CAT_ID":45457,"ELEMENT_SET_NO":999,"REV_AT_EPOCH":30674,"BSTAR":0.0013538676,"MEAN_MOTION_DOT":0.00000493,"MEAN_MOTION_DDOT":0},{"OBJECT_NAME":"ONEWEB-0102","OBJECT_ID":"2020-100A","EPOCH":"2026-07-18T22:11:48.560640","CLASSIFICATION_TYPE":"U","MEAN_MOTION":13.12443877,"ECCENTRICITY":0.00020723,"INCLINATION":87.8968,"RA_OF_ASC_NODE":344.3637,"ARG_OF_PERICENTER":103.1553,"MEAN_ANOMALY":256.9807,"EPHEMERIS_TYPE":0,"NORAD_CAT_ID":47258,"ELEMENT_SET_NO":999,"REV_AT_EPOCH":26889,"BSTAR":0.00093414571,"MEAN_MOTION_DOT":0.00000349,"MEAN_MOTION_DDOT":0},{"OBJECT_NAME":"ONEWEB-0109","OBJECT_ID":"2020-100B","EPOCH":"2026-07-19T03:53:20.993856","CLASSIFICATION_TYPE":"U","MEAN_MOTION":13.12443108,"ECCENTRICITY":0.00020094,"INCLINATION":87.8976,"RA_OF_ASC_NODE":344.3031,"ARG_OF_PERICENTER":96.6499,"MEAN_ANOMALY":263.4858,"EPHEMERIS_TYPE":0,"NORAD_CAT_ID":47259,"ELEMENT_SET_NO":999,"REV_AT_EPOCH":26875,"BSTAR":0.0010894091,"MEAN_MOTION_DOT":0.00000405,"MEAN_MOTION_DDOT":0},{"OBJECT_NAME":"ONEWEB-0110","OBJECT_ID":"2020-100C","EPOCH":"2026-07-19T02:42:36.056448","CLASSIFICATION_TYPE":"U","MEAN_MOTION":13.12443392,"ECCENTRICITY":0.00018562,"INCLINATION":87.8977,"RA_OF_ASC_NODE":344.2967,"ARG_OF_PERICENTER":106.0178,"MEAN_ANOMALY":254.1155,"EPHEMERIS_TYPE":0,"NORAD_CAT_ID":47260,"ELEMENT_SET_NO":999,"REV_AT_EPOCH":26891,"BSTAR":-0.00063487043,"MEAN_MOTION_DOT":-0.00000216,"MEAN_MOTION_DDOT":0},{"OBJECT_NAME":"ONEWEB-0111","OBJECT_ID":"2020-100D","EPOCH":"2026-07-19T03:26:30.832224","CLASSIFICATION_TYPE":"U","MEAN_MOTION":13.12443994,"ECCENTRICITY":0.00017669,"INCLINATION":87.8975,"RA_OF_ASC_NODE":344.3096,"ARG_OF_PERICENTER":99.1124,"MEAN_ANOMALY":261.0204,"EPHEMERIS_TYPE":0,"NORAD_CAT_ID":47261,"ELEMENT_SET_NO":999,"REV_AT_EPOCH":26875,"BSTAR":0.00015251027,"MEAN_MOTION_DOT":6.8e-7,"MEAN_MOTION_DDOT":0},{"OBJECT_NAME":"ONEWEB-0114","OBJECT_ID":"2020-100E","EPOCH":"2026-07-18T22:41:04.828128","CLASSIFICATION_TYPE":"U","MEAN_MOTION":13.1244155,"ECCENTRICITY":0.00020809,"INCLINATION":87.8981,"RA_OF_ASC_NODE":344.3467,"ARG_OF_PERICENTER":97.2456,"MEAN_ANOMALY":262.8909,"EPHEMERIS_TYPE":0,"NORAD_CAT_ID":47262,"ELEMENT_SET_NO":999,"REV_AT_EPOCH":26868,"BSTAR":0.00043629553,"MEAN_MOTION_DOT":0.0000017,"MEAN_MOTION_DDOT":0},{"OBJECT_NAME":"ONEWEB-0117","OBJECT_ID":"2020-100F","EPOCH":"2026-07-18T22:28:53.254272","CLASSIFICATION_TYPE":"U","MEAN_MOTION":13.12442017,"ECCENTRICITY":0.00018716,"INCLINATION":87.8974,"RA_OF_ASC_NODE":344.3384,"ARG_OF_PERICENTER":98.9158,"MEAN_ANOMALY":261.2183,"EPHEMERIS_TYPE":0,"NORAD_CAT_ID":47263,"ELEMENT_SET_NO":999,"REV_AT_EPOCH":26869,"BSTAR":0.0010054811,"MEAN_MOTION_DOT":0.00000374,"MEAN_MOTION_DDOT":0},{"OBJECT_NAME":"ONEWEB-0118","OBJECT_ID":"2020-100G","EPOCH":"2026-07-18T21:27:53.421984","CLASSIFICATION_TYPE":"U","MEAN_MOTION":13.12442537,"ECCENTRICITY":0.00019309,"INCLINATION":87.8974,"RA_OF_ASC_NODE":344.3496,"ARG_OF_PERICENTER":86.8405,"MEAN_ANOMALY":273.2944,"EPHEMERIS_TYPE":0,"NORAD_CAT_ID":47264,"ELEMENT_SET_NO":999,"REV_AT_EPOCH":26888,"BSTAR":-0.0010760663,"MEAN_MOTION_DOT":-0.00000374,"MEAN_MOTION_DDOT":0},{"OBJECT_NAME":"ONEWEB-0119","OBJECT_ID":"2020-100H","EPOCH":"2026-07-18T22:04:29.710848","CLASSIFICATION_TYPE":"U","MEAN_MOTION":13.12443322,"ECCENTRICITY":0.00018943,"INCLINATION":87.8964,"RA_OF_ASC_NODE":344.3585,"ARG_OF_PERICENTER":96.9622,"MEAN_ANOMALY":263.1722,"EPHEMERIS_TYPE":0,"NORAD_CAT_ID":47265,"ELEMENT_SET_NO":999,"REV_AT_EPOCH":26886,"BSTAR":0.00084319719,"MEAN_MOTION_DOT":0.00000316,"MEAN_MOTION_DDOT":0}]}
