[
  {
    "name": "ONEWEB-0094",
    "noradId": "45450",
    "line1": "1 45450U 20020AC  26200.17207928  .00000014  00000+0  28853-5 0  9993",
    "line2": "2 45450  87.9158 359.4891 0001835 101.7889 258.3448 13.17649156310526"
  },
  {
    "name": "ONEWEB-0087",
    "noradId": "45451",
    "line1": "1 45451U 20020AD  26199.99961690  .00000239  00000+0  63803-3 0  9995",
    "line2": "2 45451  87.8902  14.7129 0001592  97.2912 262.8397 13.11418448306759"
  },
  {
    "name": "ONEWEB-0082",
    "noradId": "45452",
    "line1": "1 45452U 20020AE  26199.99622344  .00000031  00000+0  51737-4 0  9990",
    "line2": "2 45452  87.8896  14.7273 0001352  92.8507 267.2776 13.11419096306847"
  },
  {
    "name": "ONEWEB-0050",
    "noradId": "45453",
    "line1": "1 45453U 20020AF  26200.10108001  .00000802  00000+0  79977-4 0  9998",
    "line2": "2 45453  88.9282 228.8753 0002773 164.3342 195.7973 14.90478592345133"
  },
  {
    "name": "ONEWEB-0034",
    "noradId": "45454",
    "line1": "1 45454U 20020AG  26200.18641727  .00000039  00000+0  75230-4 0  9994",
    "line2": "2 45454  87.8895  14.6986 0001804  89.0763 271.0572 13.11414746306789"
  },
  {
    "name": "ONEWEB-0060",
    "noradId": "45455",
    "line1": "1 45455U 20020AH  26199.98873235 -.00000261  00000+0 -77091-3 0  9996",
    "line2": "2 45455  87.8890  14.7338 0001380 125.0838 235.0420 13.11418376306718"
  },
  {
    "name": "ONEWEB-0086",
    "noradId": "45456",
    "line1": "1 45456U 20020AJ  26200.19628293 -.00000410  00000+0 -11929-2 0  9998",
    "line2": "2 45456  87.8894  14.6904 0001980 114.8355 245.2979 13.11416586306800"
  },
  {
    "name": "ONEWEB-0088",
    "noradId": "45457",
    "line1": "1 45457U 20020AK  26200.25068295  .00000493  00000+0  13539-2 0  9994",
    "line2": "2 45457  87.8902  14.6546 0001645  79.7617 280.3696 13.11416064306741"
  },
  {
    "name": "ONEWEB-0102",
    "noradId": "47258",
    "line1": "1 47258U 20100A   26199.92486760  .00000349  00000+0  93415-3 0  9998",
    "line2": "2 47258  87.8968 344.3637 0002072 103.1553 256.9807 13.12443877268893"
  },
  {
    "name": "ONEWEB-0109",
    "noradId": "47259",
    "line1": "1 47259U 20100B   26200.16204854  .00000405  00000+0  10894-2 0  9992",
    "line2": "2 47259  87.8976 344.3031 0002009  96.6499 263.4858 13.12443108268757"
  },
  {
    "name": "ONEWEB-0110",
    "noradId": "47260",
    "line1": "1 47260U 20100C   26200.11291732 -.00000216  00000+0 -63487-3 0  9999",
    "line2": "2 47260  87.8977 344.2967 0001856 106.0178 254.1155 13.12443392268916"
  },
  {
    "name": "ONEWEB-0111",
    "noradId": "47261",
    "line1": "1 47261U 20100D   26200.14341241  .00000068  00000+0  15251-3 0  9993",
    "line2": "2 47261  87.8975 344.3096 0001766  99.1124 261.0204 13.12443994268754"
  },
  {
    "name": "ONEWEB-0114",
    "noradId": "47262",
    "line1": "1 47262U 20100E   26199.94519477  .00000170  00000+0  43630-3 0  9993",
    "line2": "2 47262  87.8981 344.3467 0002080  97.2456 262.8909 13.12441550268680"
  },
  {
    "name": "ONEWEB-0117",
    "noradId": "47263",
    "line1": "1 47263U 20100F   26199.93672748  .00000374  00000+0  10055-2 0  9994",
    "line2": "2 47263  87.8974 344.3384 0001871  98.9158 261.2183 13.12442017268692"
  },
  {
    "name": "ONEWEB-0118",
    "noradId": "47264",
    "line1": "1 47264U 20100G   26199.89436831 -.00000374  00000+0 -10761-2 0  9997",
    "line2": "2 47264  87.8974 344.3496 0001930  86.8405 273.2944 13.12442537268880"
  },
  {
    "name": "ONEWEB-0119",
    "noradId": "47265",
    "line1": "1 47265U 20100H   26199.91978832  .00000316  00000+0  84320-3 0  9990",
    "line2": "2 47265  87.8964 344.3585 0001894  96.9622 263.1722 13.12443322268864"
  }
]